{
  "type": "FeatureCollection",
  "features": [
    {
      "type": "Feature",
      "properties": {
        "norad_id": 66739,
        "name": "FLOCK 4H-36",
        "group": "last-30-days",
        "lat": 82.54485244946123,
        "lon": -20.09610370124583,
        "alt_km": 504.67579357333216,
        "timestamp": "2025-12-22T05:49:02.185704+00:00",
        "meta_object_name": "FLOCK 4H-36",
        "meta_object_id": "2025-276CB",
        "meta_epoch": "2025-12-21T18:20:56.180832",
        "meta_mean_motion": 15.17977358,
        "meta_eccentricity": 0.0002278,
        "meta_inclination": 97.4454,
        "meta_ra_of_asc_node": 67.405,
        "meta_arg_of_pericenter": 189.2497,
        "meta_mean_anomaly": 170.8695,
        "meta_ephemeris_type": 0,
        "meta_classification_type": "U",
        "meta_norad_cat_id": 66739,
        "meta_element_set_no": 999,
        "meta_rev_at_epoch": 349,
        "meta_bstar": 0.00041744,
        "meta_mean_motion_dot": 8.419e-05,
        "meta_mean_motion_ddot": 0,
        "tle_line1": "1 66739U 25276CB  25355.76453913  .00008419  00000+0  41744-3 0  9995",
        "tle_line2": "2 66739  97.4454  67.4050 0002278 189.2497 170.8695 15.17977358  3492"
      },
      "geometry": {
        "type": "Point",
        "coordinates": [
          -20.09610370124583,
          82.54485244946123
        ]
      }
    },
    {
      "type": "Feature",
      "properties": {
        "norad_id": 66740,
        "name": "TRANSPORTER-15 CC",
        "group": "last-30-days",
        "lat": 63.267993470933035,
        "lon": 52.81376464989107,
        "alt_km": 508.1051015224757,
        "timestamp": "2025-12-22T05:49:02.185715+00:00",
        "meta_object_name": "TRANSPORTER-15 CC",
        "meta_object_id": "2025-276CC",
        "meta_epoch": "2025-12-21T18:27:31.013280",
        "meta_mean_motion": 15.17691202,
        "meta_eccentricity": 0.0002104,
        "meta_inclination": 97.4417,
        "meta_ra_of_asc_node": 67.3904,
        "meta_arg_of_pericenter": 243.3749,
        "meta_mean_anomaly": 116.727,
        "meta_ephemeris_type": 0,
        "meta_classification_type": "U",
        "meta_norad_cat_id": 66740,
        "meta_element_set_no": 999,
        "meta_rev_at_epoch": 349,
        "meta_bstar": 0.00042754,
        "meta_mean_motion_dot": 8.554e-05,
        "meta_mean_motion_ddot": 0,
        "tle_line1": "1 66740U 25276CC  25355.76910895  .00008554  00000+0  42754-3 0  9996",
        "tle_line2": "2 66740  97.4417  67.3904 0002104 243.3749 116.7270 15.17691202  3499"
      },
      "geometry": {
        "type": "Point",
        "coordinates": [
          52.81376464989107,
          63.267993470933035
        ]
      }
    },
    {
      "type": "Feature",
      "properties": {
        "norad_id": 66741,
        "name": "TRANSPORTER-15 CD",
        "group": "last-30-days",
        "lat": 44.95006055813142,
        "lon": 60.343486112035286,
        "alt_km": 526.4565767331023,
        "timestamp": "2025-12-22T05:49:02.185727+00:00",
        "meta_object_name": "TRANSPORTER-15 CD",
        "meta_object_id": "2025-276CD",
        "meta_epoch": "2025-12-20T15:35:26.593440",
        "meta_mean_motion": 15.16370519,
        "meta_eccentricity": 0.00149164,
        "meta_inclination": 97.4418,
        "meta_ra_of_asc_node": 66.2803,
        "meta_arg_of_pericenter": 254.9889,
        "meta_mean_anomaly": 104.9694,
        "meta_ephemeris_type": 0,
        "meta_classification_type": "U",
        "meta_norad_cat_id": 66741,
        "meta_element_set_no": 999,
        "meta_rev_at_epoch": 332,
        "meta_bstar": -0.021786228,
        "meta_mean_motion_dot": -0.00401721,
        "meta_mean_motion_ddot": 0,
        "tle_line1": "1 66741U 25276CD  25354.64961335 -.00401721  00000+0 -21786-1 0  9993",
        "tle_line2": "2 66741  97.4418  66.2803 0014916 254.9889 104.9694 15.16370519  3329"
      },
      "geometry": {
        "type": "Point",
        "coordinates": [
          60.343486112035286,
          44.95006055813142
        ]
      }
    },
    {
      "type": "Feature",
      "properties": {
        "norad_id": 66742,
        "name": "TRANSPORTER-15 CE",
        "group": "last-30-days",
        "lat": 66.1953290047435,
        "lon": 50.61337126878585,
        "alt_km": 507.02591997486616,
        "timestamp": "2025-12-22T05:49:02.185738+00:00",
        "meta_object_name": "TRANSPORTER-15 CE",
        "meta_object_id": "2025-276CE",
        "meta_epoch": "2025-12-21T20:01:38.796384",
        "meta_mean_motion": 15.1768355,
        "meta_eccentricity": 0.0001547,
        "meta_inclination": 97.4409,
        "meta_ra_of_asc_node": 67.4455,
        "meta_arg_of_pericenter": 194.754,
        "meta_mean_anomaly": 165.3649,
        "meta_ephemeris_type": 0,
        "meta_classification_type": "U",
        "meta_norad_cat_id": 66742,
        "meta_element_set_no": 999,
        "meta_rev_at_epoch": 350,
        "meta_bstar": 0.00030324,
        "meta_mean_motion_dot": 6.044e-05,
        "meta_mean_motion_ddot": 0,
        "tle_line1": "1 66742U 25276CE  25355.83447681  .00006044  00000+0  30324-3 0  9996",
        "tle_line2": "2 66742  97.4409  67.4455 0001547 194.7540 165.3649 15.17683550  3501"
      },
      "geometry": {
        "type": "Point",
        "coordinates": [
          50.61337126878585,
          66.1953290047435
        ]
      }
    },
    {
      "type": "Feature",
      "properties": {
        "norad_id": 66743,
        "name": "TRANSPORTER-15 CF",
        "group": "last-30-days",
        "lat": 47.75057595556196,
        "lon": 59.56548487616833,
        "alt_km": 509.53058975040676,
        "timestamp": "2025-12-22T05:49:02.185748+00:00",
        "meta_object_name": "TRANSPORTER-15 CF",
        "meta_object_id": "2025-276CF",
        "meta_epoch": "2025-12-21T18:31:38.139744",
        "meta_mean_motion": 15.17492309,
        "meta_eccentricity": 4.96e-05,
        "meta_inclination": 97.4408,
        "meta_ra_of_asc_node": 67.376,
        "meta_arg_of_pericenter": 245.3816,
        "meta_mean_anomaly": 114.7366,
        "meta_ephemeris_type": 0,
        "meta_classification_type": "U",
        "meta_norad_cat_id": 66743,
        "meta_element_set_no": 999,
        "meta_rev_at_epoch": 349,
        "meta_bstar": 0.00040244,
        "meta_mean_motion_dot": 8.001e-05,
        "meta_mean_motion_ddot": 0,
        "tle_line1": "1 66743U 25276CF  25355.77196921  .00008001  00000+0  40244-3 0  9995",
        "tle_line2": "2 66743  97.4408  67.3760 0000496 245.3816 114.7366 15.17492309  3492"
      },
      "geometry": {
        "type": "Point",
        "coordinates": [
          59.56548487616833,
          47.75057595556196
        ]
      }
    },
    {
      "type": "Feature",
      "properties": {
        "norad_id": 66744,
        "name": "TRANSPORTER-15 CG",
        "group": "last-30-days",
        "lat": 41.84112485760289,
        "lon": 61.120567060353764,
        "alt_km": 507.016423077549,
        "timestamp": "2025-12-22T05:49:02.185758+00:00",
        "meta_object_name": "TRANSPORTER-15 CG",
        "meta_object_id": "2025-276CG",
        "meta_epoch": "2025-12-21T16:58:29.137152",
        "meta_mean_motion": 15.17770931,
        "meta_eccentricity": 0.0005788,
        "meta_inclination": 97.4418,
        "meta_ra_of_asc_node": 67.3156,
        "meta_arg_of_pericenter": 115.372,
        "meta_mean_anomaly": 244.8113,
        "meta_ephemeris_type": 0,
        "meta_classification_type": "U",
        "meta_norad_cat_id": 66744,
        "meta_element_set_no": 999,
        "meta_rev_at_epoch": 348,
        "meta_bstar": 0.014734,
        "meta_mean_motion_dot": 0.00310324,
        "meta_mean_motion_ddot": 0,
        "tle_line1": "1 66744U 25276CG  25355.70728168  .00310324  00000+0  14734-1 0  9990",
        "tle_line2": "2 66744  97.4418  67.3156 0005788 115.3720 244.8113 15.17770931  3486"
      },
      "geometry": {
        "type": "Point",
        "coordinates": [
          61.120567060353764,
          41.84112485760289
        ]
      }
    },
    {
      "type": "Feature",
      "properties": {
        "norad_id": 66745,
        "name": "TRANSPORTER-15 CH",
        "group": "last-30-days",
        "lat": 46.497989301136855,
        "lon": 59.924555908552975,
        "alt_km": 510.50079159379493,
        "timestamp": "2025-12-22T05:49:02.185768+00:00",
        "meta_object_name": "TRANSPORTER-15 CH",
        "meta_object_id": "2025-276CH",
        "meta_epoch": "2025-12-21T10:37:08.588928",
        "meta_mean_motion": 15.17413213,
        "meta_eccentricity": 0.00013964,
        "meta_inclination": 97.4419,
        "meta_ra_of_asc_node": 67.0553,
        "meta_arg_of_pericenter": 252.4591,
        "meta_mean_anomaly": 107.649,
        "meta_ephemeris_type": 0,
        "meta_classification_type": "U",
        "meta_norad_cat_id": 66745,
        "meta_element_set_no": 999,
        "meta_rev_at_epoch": 344,
        "meta_bstar": 0.00033002421,
        "meta_mean_motion_dot": 6.533e-05,
        "meta_mean_motion_ddot": 0,
        "tle_line1": "1 66745U 25276CH  25355.44246052  .00006533  00000+0  33002-3 0  9994",
        "tle_line2": "2 66745  97.4419  67.0553 0001396 252.4591 107.6490 15.17413213  3443"
      },
      "geometry": {
        "type": "Point",
        "coordinates": [
          59.924555908552975,
          46.497989301136855
        ]
      }
    }
  ]
}